      2.10          N: GNSS NAV DATA                        RINEX VERSION / TYPE
fic2rin                                 03/18/2023 00:17:39 PGM / RUN BY / DATE
                                                            END OF HEADER
7  23  3 17  1 59 44.0  .221596099436D-03 -.773070496507D-11  .000000000000D+00
     .200000000000D+01  .215312500000D+02  .475555523082D-08  .297035231096D+01
     .964850187302D-06  .168862038990D-01  .771321356297D-05  .515375720215D+04
     .439184000000D+06  .521540641785D-07  .488651707356D+00 -.186264514923D-06
     .950728226287D+00  .224093750000D+03 -.221451455638D+01 -.772889336800D-08
     .303941231801D-09  .100000000000D+01  .225300000000D+04  .000000000000D+00
     .240000000000D+01  .000000000000D+00 -.111758708954D-07  .200000000000D+01
     .432000000000D+06  .400000000000D+01
25 23  3 17 11 59 44.0  .428381375968D-03  .306954461848D-11  .000000000000D+00
     .300000000000D+01  .133750000000D+02  .495199198463D-08  .101390294206D+01
     .711530447006D-06  .111854297575D-01  .736117362976D-05  .515375600433D+04
     .475184000000D+06 -.132247805595D-06  .152156686444D+01  .782310962677D-07
     .953401267275D+00  .236375000000D+03  .103943051584D+01 -.828534511788D-08
    -.594667627436D-09  .100000000000D+01  .225300000000D+04  .000000000000D+00
     .240000000000D+01  .000000000000D+00  .558793544769D-08  .300000000000D+01
     .468000000000D+06  .400000000000D+01
1  23  3 17 12  0  0.0  .201940070838D-03 -.375166564481D-11  .000000000000D+00
     .300000000000D+02  .751250000000D+02  .378337187834D-08  .253255465258D+01
     .375509262085D-05  .125294066966D-01  .360049307346D-05  .515365139961D+04
     .475200000000D+06  .186264514923D-08 -.263953028111D+01 -.145286321640D-06
     .989808027374D+00  .325218750000D+03  .941491658507D+00 -.784175521201D-08
     .324656380384D-09  .100000000000D+01  .225300000000D+04  .000000000000D+00
     .240000000000D+01  .000000000000D+00  .465661287308D-08  .300000000000D+02
     .468000000000D+06  .400000000000D+01
2  23  3 17 12  0  0.0 -.613685697317D-03  .284217094304D-11  .000000000000D+00
     .980000000000D+02  .685000000000D+02  .435482425305D-08  .152572179463D+01
     .330619513988D-05  .198712424608D-01  .328943133354D-05  .515368149567D+04
     .475200000000D+06  .361353158951D-06 -.273690150867D+01 -.456348061562D-06
     .967453340052D+00  .315718750000D+03 -.131690365670D+01 -.815391107170D-08
     .306084178206D-09  .100000000000D+01  .225300000000D+04  .000000000000D+00
     .240000000000D+01  .000000000000D+00 -.176951289177D-07  .980000000000D+02
     .468000000000D+06  .400000000000D+01
5  23  3 17 12  0  0.0 -.119802076370D-03 -.147792889038D-11  .000000000000D+00
     .250000000000D+02 -.940937500000D+02  .454518932538D-08 -.115797170553D+01
    -.464916229248D-05  .578917760868D-02  .400468707085D-05  .515363081551D+04
     .475200000000D+06  .931322574615D-08 -.165393546512D+01  .117346644402D-06
     .964650355365D+00  .300250000000D+03  .113140225028D+01 -.828498796015D-08
    -.192865176466D-10  .100000000000D+01  .225300000000D+04  .000000000000D+00
     .240000000000D+01  .000000000000D+00 -.111758708954D-07  .250000000000D+02
     .468000000000D+06  .400000000000D+01
12 23  3 17 12  0  0.0 -.352581962943D-03 -.466116034659D-11  .000000000000D+00
     .210000000000D+02  .103125000000D+02  .455126100686D-08  .113026797675D+01
     .353902578354D-06  .894201453775D-02  .781193375587D-05  .515363678169D+04
     .475200000000D+06 -.134110450745D-06  .160310085687D+01 -.484287738800D-07
     .965735088640D+00  .234125000000D+03  .134716814019D+01 -.804426364730D-08
    -.582881422208D-09  .100000000000D+01  .225300000000D+04  .000000000000D+00
     .240000000000D+01  .000000000000D+00 -.125728547573D-07  .210000000000D+02
     .468000000000D+06  .400000000000D+01
7  23  3 17 12  0  0.0  .221315305680D-03 -.784439180279D-11  .000000000000D+00
     .450000000000D+02  .261250000000D+02  .505842498942D-08  .194004903026D+01
     .112503767014D-05  .168902574806D-01  .804848968983D-05  .515375996399D+04
     .475200000000D+06 -.361353158951D-06  .488356484636D+00 -.327825546265D-06
     .950733987258D+00  .223562500000D+03 -.221439323658D+01 -.811962392921D-08
     .372515516767D-09  .100000000000D+01  .225300000000D+04  .000000000000D+00
     .240000000000D+01  .000000000000D+00 -.111758708954D-07  .450000000000D+02
     .468000000000D+06  .400000000000D+01
6  23  3 17 12  0  0.0  .581872649491D-03  .272848410532D-11  .000000000000D+00
     .400000000000D+02  .639687500000D+02  .382444501777D-08  .274109452886D+01
     .338442623615D-05  .289652787615D-02  .382214784622D-05  .515363354683D+04
     .475200000000D+06  .298023223877D-07 -.264783766770D+01  .372529029846D-07
     .989050285549D+00  .320937500000D+03 -.794054542256D+00 -.793783064251D-08
     .260725145963D-09  .100000000000D+01  .225300000000D+04  .000000000000D+00
     .240000000000D+01  .000000000000D+00  .372529029846D-08  .400000000000D+02
     .468000000000D+06  .400000000000D+01
4  23  3 17 12  0  0.0 -.507105141878D-05  .875388650456D-11  .000000000000D+00
     .181000000000D+03 -.801250000000D+02  .439446876155D-08 -.201441668148D+01
    -.431388616562D-05  .234592426568D-02  .108107924461D-04  .515370199776D+04
     .475200000000D+06  .689178705215D-07 -.526837526521D+00 -.558793544769D-07
     .962730513842D+00  .175031250000D+03 -.300345901899D+01 -.780246786125D-08
     .277154401736D-09  .100000000000D+01  .225300000000D+04  .000000000000D+00
     .240000000000D+01  .000000000000D+00 -.465661287308D-08  .949000000000D+03
     .468000000000D+06  .400000000000D+01
10 23  3 17 12  0  0.0 -.289171002805D-04 -.159161572810D-11  .000000000000D+00
     .960000000000D+02 -.111250000000D+03  .429660754238D-08  .428942079822D+00
    -.577047467232D-05  .847437977791D-02  .413507223129D-05  .515368795013D+04
     .475200000000D+06 -.502914190292D-07 -.161094707462D+01  .182539224625D-06
     .977364945047D+00  .310062500000D+03 -.243181723589D+01 -.824891502899D-08
    -.107861635727D-09  .100000000000D+01  .225300000000D+04  .000000000000D+00
     .340000000000D+01  .000000000000D+00  .232830643654D-08  .960000000000D+02
     .468000000000D+06  .400000000000D+01
11 23  3 17 12  0  0.0 -.133016146719D-03 -.114823706099D-10  .000000000000D+00
     .650000000000D+02  .591875000000D+02  .433696636634D-08 -.224356824841D+01
     .316835939884D-05  .745124300011D-03  .306218862534D-05  .515372029877D+04
     .475200000000D+06 -.745058059692D-08 -.260493131471D+01  .186264514923D-08
     .965155103064D+00  .322406250000D+03 -.273215275809D+01 -.821069915143D-08
     .272154193457D-09  .100000000000D+01  .225300000000D+04  .000000000000D+00
     .240000000000D+01  .000000000000D+00 -.884756445885D-08  .321000000000D+03
     .468000000000D+06  .400000000000D+01
31 23  3 17 12  0  0.0 -.211801845580D-03 -.909494701773D-12  .000000000000D+00
     .330000000000D+02  .218750000000D+02  .505235330794D-08  .126372440623D+01
     .145845115185D-05  .106227148790D-01  .774674117565D-05  .515417448044D+04
     .475200000000D+06 -.353902578354D-07  .508033581295D+00  .149011611938D-06
     .954825510189D+00  .229062500000D+03  .520149360572D+00 -.820641325862D-08
     .157863718515D-09  .100000000000D+01  .225300000000D+04  .000000000000D+00
     .240000000000D+01  .000000000000D+00 -.135041773319D-07  .330000000000D+02
     .468000000000D+06  .400000000000D+01
32 23  3 17 12  0  0.0 -.425903592259D-03 -.108002495836D-10  .000000000000D+00
     .390000000000D+02 -.805625000000D+02  .450018745087D-08 -.869839976144D+00
    -.402517616749D-05  .676161888987D-02  .112820416689D-04  .515372347641D+04
     .475200000000D+06  .111758708954D-07 -.570086275479D+00  .189989805222D-06
     .959601596858D+00  .161250000000D+03 -.223441665277D+01 -.788068540504D-08
     .292869342041D-09  .100000000000D+01  .225300000000D+04  .000000000000D+00
     .240000000000D+01  .000000000000D+00  .465661287308D-09  .390000000000D+02
     .468000000000D+06  .400000000000D+01
17 23  3 17 12  0  0.0  .705931801349D-03  .193267624127D-11  .000000000000D+00
     .350000000000D+02  .788437500000D+02  .389444793367D-08 -.158176499690D+01
     .428408384323D-05  .135660988744D-01  .983662903309D-05  .515373793793D+04
     .475200000000D+06 -.428408384323D-07  .264234350476D+01  .352039933205D-06
     .975299600229D+00  .201750000000D+03 -.141430302934D+01 -.777996692399D-08
    -.239295681911D-09  .100000000000D+01  .225300000000D+04  .000000000000D+00
     .240000000000D+01  .000000000000D+00 -.111758708954D-07  .350000000000D+02
     .468000000000D+06  .400000000000D+01
24 23  3 17 12  0  0.0 -.115195289254D-03 -.152340362547D-10  .000000000000D+00
     .900000000000D+02  .250312500000D+02  .535450875107D-08  .281361240940D+01
     .110641121864D-05  .137555637630D-01  .764429569244D-05  .515365213585D+04
     .475200000000D+06 -.707805156708D-07  .398927840169D+00 -.180676579475D-06
     .934350295166D+00  .215218750000D+03  .888241544288D+00 -.808390815579D-08
     .302155443130D-09  .100000000000D+01  .225300000000D+04  .000000000000D+00
     .240000000000D+01  .000000000000D+00  .232830643654D-08  .900000000000D+02
     .468000000000D+06  .400000000000D+01
16 23  3 17 12  0  0.0 -.514892861247D-03  .227373675443D-11  .000000000000D+00
     .790000000000D+02  .123437500000D+02  .464305054455D-08 -.703977049733D+00
     .711530447006D-06  .134115297114D-01  .749528408051D-05  .515356072426D+04
     .475200000000D+06  .987201929092D-07  .162143628795D+01  .199303030968D-06
     .965465165625D+00  .236468750000D+03  .778663646352D+00 -.815141096756D-08
    -.623240246172D-09  .100000000000D+01  .225300000000D+04  .000000000000D+00
     .240000000000D+01  .000000000000D+00 -.102445483208D-07  .790000000000D+02
     .468000000000D+06  .400000000000D+01
